{
  "type": "FeatureCollection",
  "features": [
    {
      "type": "Feature",
      "properties": {
        "norad_id": 32376,
        "name": "COSMO-SKYMED 2",
        "group": "resource",
        "lat": 72.4080382002685,
        "lon": 19.794356110826804,
        "alt_km": 614.7204542871741,
        "timestamp": "2025-12-18T15:47:10.876945+00:00",
        "meta_object_name": "COSMO-SKYMED 2",
        "meta_object_id": "2007-059A",
        "meta_epoch": "2025-12-18T07:12:35.172576",
        "meta_mean_motion": 14.82149393,
        "meta_eccentricity": 0.00013538,
        "meta_inclination": 97.8803,
        "meta_ra_of_asc_node": 173.5405,
        "meta_arg_of_pericenter": 82.9377,
        "meta_mean_anomaly": 277.199,
        "meta_ephemeris_type": 0,
        "meta_classification_type": "U",
        "meta_norad_cat_id": 32376,
        "meta_element_set_no": 999,
        "meta_rev_at_epoch": 97520,
        "meta_bstar": 6.4033649e-05,
        "meta_mean_motion_dot": 4.58e-06,
        "meta_mean_motion_ddot": 0,
        "tle_line1": "1 32376U 07059A   25352.30040709  .00000458  00000+0  64034-4 0  9999",
        "tle_line2": "2 32376  97.8803 173.5405 0001353  82.9377 277.1990 14.82149393975203"
      },
      "geometry": {
        "type": "Point",
        "coordinates": [
          19.794356110826804,
          72.4080382002685
        ]
      }
    },
    {
      "type": "Feature",
      "properties": {
        "norad_id": 32382,
        "name": "RADARSAT-2",
        "group": "resource",
        "lat": 24.632992184225046,
        "lon": -6.8070120485834416,
        "alt_km": 790.6614481343549,
        "timestamp": "2025-12-18T15:47:10.876955+00:00",
        "meta_object_name": "RADARSAT-2",
        "meta_object_id": "2007-061A",
        "meta_epoch": "2025-12-18T07:16:25.087296",
        "meta_mean_motion": 14.29982609,
        "meta_eccentricity": 0.00010892,
        "meta_inclination": 98.5794,
        "meta_ra_of_asc_node": 356.8128,
        "meta_arg_of_pericenter": 84.4692,
        "meta_mean_anomaly": 275.6615,
        "meta_ephemeris_type": 0,
        "meta_classification_type": "U",
        "meta_norad_cat_id": 32382,
        "meta_element_set_no": 999,
        "meta_rev_at_epoch": 94010,
        "meta_bstar": -4.9724537e-05,
        "meta_mean_motion_dot": -1.72e-06,
        "meta_mean_motion_ddot": 0,
        "tle_line1": "1 32382U 07061A   25352.30306814 -.00000172  00000+0 -49725-4 0  9996",
        "tle_line2": "2 32382  98.5794 356.8128 0001089  84.4692 275.6615 14.29982609940102"
      },
      "geometry": {
        "type": "Point",
        "coordinates": [
          -6.8070120485834416,
          24.632992184225046
        ]
      }
    },
    {
      "type": "Feature",
      "properties": {
        "norad_id": 32783,
        "name": "CARTOSAT-2A",
        "group": "resource",
        "lat": 2.7907004970148965,
        "lon": -137.32077475748576,
        "alt_km": 643.1855751501753,
        "timestamp": "2025-12-18T15:47:10.876966+00:00",
        "meta_object_name": "CARTOSAT-2A",
        "meta_object_id": "2008-021A",
        "meta_epoch": "2025-12-18T06:52:08.993280",
        "meta_mean_motion": 14.78945684,
        "meta_eccentricity": 0.0011478,
        "meta_inclination": 97.7929,
        "meta_ra_of_asc_node": 41.9368,
        "meta_arg_of_pericenter": 346.5588,
        "meta_mean_anomaly": 13.5316,
        "meta_ephemeris_type": 0,
        "meta_classification_type": "U",
        "meta_norad_cat_id": 32783,
        "meta_element_set_no": 999,
        "meta_rev_at_epoch": 95206,
        "meta_bstar": 4.7832083e-05,
        "meta_mean_motion_dot": 3.03e-06,
        "meta_mean_motion_ddot": 0,
        "tle_line1": "1 32783U 08021A   25352.28621520  .00000303  00000+0  47832-4 0  9990",
        "tle_line2": "2 32783  97.7929  41.9368 0011478 346.5588  13.5316 14.78945684952066"
      },
      "geometry": {
        "type": "Point",
        "coordinates": [
          -137.32077475748576,
          2.7907004970148965
        ]
      }
    },
    {
      "type": "Feature",
      "properties": {
        "norad_id": 33320,
        "name": "HUANJING 1A (HJ-1A)",
        "group": "resource",
        "lat": 41.926300349707134,
        "lon": 167.64581332814066,
        "alt_km": 622.5137696216507,
        "timestamp": "2025-12-18T15:47:10.876977+00:00",
        "meta_object_name": "HUANJING 1A (HJ-1A)",
        "meta_object_id": "2008-041A",
        "meta_epoch": "2025-12-18T07:04:30.689760",
        "meta_mean_motion": 14.83412047,
        "meta_eccentricity": 0.00198321,
        "meta_inclination": 97.6536,
        "meta_ra_of_asc_node": 340.3617,
        "meta_arg_of_pericenter": 16.8384,
        "meta_mean_anomaly": 343.3484,
        "meta_ephemeris_type": 0,
        "meta_classification_type": "U",
        "meta_norad_cat_id": 33320,
        "meta_element_set_no": 999,
        "meta_rev_at_epoch": 93158,
        "meta_bstar": 0.00013597618,
        "meta_mean_motion_dot": 1.068e-05,
        "meta_mean_motion_ddot": 0,
        "tle_line1": "1 33320U 08041A   25352.29479965  .00001068  00000+0  13598-3 0  9995",
        "tle_line2": "2 33320  97.6536 340.3617 0019832  16.8384 343.3484 14.83412047931585"
      },
      "geometry": {
        "type": "Point",
        "coordinates": [
          167.64581332814066,
          41.926300349707134
        ]
      }
    },
    {
      "type": "Feature",
      "properties": {
        "norad_id": 33321,
        "name": "HUANJING 1B (HJ-1B)",
        "group": "resource",
        "lat": -14.21807045961416,
        "lon": -13.660014279842382,
        "alt_km": 616.3342282021486,
        "timestamp": "2025-12-18T15:47:10.876988+00:00",
        "meta_object_name": "HUANJING 1B (HJ-1B)",
        "meta_object_id": "2008-041B",
        "meta_epoch": "2025-12-18T06:08:00.999168",
        "meta_mean_motion": 14.82834207,
        "meta_eccentricity": 0.00380838,
        "meta_inclination": 97.6396,
        "meta_ra_of_asc_node": 344.0067,
        "meta_arg_of_pericenter": 58.1646,
        "meta_mean_anomaly": 302.3267,
        "meta_ephemeris_type": 0,
        "meta_classification_type": "U",
        "meta_norad_cat_id": 33321,
        "meta_element_set_no": 999,
        "meta_rev_at_epoch": 93159,
        "meta_bstar": 8.7988988e-05,
        "meta_mean_motion_dot": 6.69e-06,
        "meta_mean_motion_ddot": 0,
        "tle_line1": "1 33321U 08041B   25352.25556712  .00000669  00000+0  87989-4 0  9990",
        "tle_line2": "2 33321  97.6396 344.0067 0038083  58.1646 302.3267 14.82834207931599"
      },
      "geometry": {
        "type": "Point",
        "coordinates": [
          -13.660014279842382,
          -14.21807045961416
        ]
      }
    },
    {
      "type": "Feature",
      "properties": {
        "norad_id": 33331,
        "name": "GEOEYE 1",
        "group": "resource",
        "lat": -51.38959267965154,
        "lon": 74.16906073024926,
        "alt_km": 683.6384832696122,
        "timestamp": "2025-12-18T15:47:10.877042+00:00",
        "meta_object_name": "GEOEYE 1",
        "meta_object_id": "2008-042A",
        "meta_epoch": "2025-12-18T06:11:12.137568",
        "meta_mean_motion": 14.64707865,
        "meta_eccentricity": 0.00027801,
        "meta_inclination": 98.1248,
        "meta_ra_of_asc_node": 63.4692,
        "meta_arg_of_pericenter": 261.2165,
        "meta_mean_anomaly": 98.8723,
        "meta_ephemeris_type": 0,
        "meta_classification_type": "U",
        "meta_norad_cat_id": 33331,
        "meta_element_set_no": 999,
        "meta_rev_at_epoch": 92366,
        "meta_bstar": 0.00010147396,
        "meta_mean_motion_dot": 4.93e-06,
        "meta_mean_motion_ddot": 0,
        "tle_line1": "1 33331U 08042A   25352.25777937  .00000493  00000+0  10147-3 0  9992",
        "tle_line2": "2 33331  98.1248  63.4692 0002780 261.2165  98.8723 14.64707865923668"
      },
      "geometry": {
        "type": "Point",
        "coordinates": [
          74.16906073024926,
          -51.38959267965154
        ]
      }
    },
    {
      "type": "Feature",
      "properties": {
        "norad_id": 33396,
        "name": "THEOS",
        "group": "resource",
        "lat": -63.745153391634624,
        "lon": 68.4106022172473,
        "alt_km": 832.996736441245,
        "timestamp": "2025-12-18T15:47:10.877070+00:00",
        "meta_object_name": "THEOS",
        "meta_object_id": "2008-049A",
        "meta_epoch": "2025-12-18T07:38:15.175680",
        "meta_mean_motion": 14.20096446,
        "meta_eccentricity": 0.00011772,
        "meta_inclination": 98.5866,
        "meta_ra_of_asc_node": 50.2435,
        "meta_arg_of_pericenter": 95.348,
        "meta_mean_anomaly": 264.7831,
        "meta_ephemeris_type": 0,
        "meta_classification_type": "U",
        "meta_norad_cat_id": 33396,
        "meta_element_set_no": 999,
        "meta_rev_at_epoch": 89229,
        "meta_bstar": -7.9009801e-05,
        "meta_mean_motion_dot": -2.11e-06,
        "meta_mean_motion_ddot": 0,
        "tle_line1": "1 33396U 08049A   25352.31823120 -.00000211  00000+0 -79010-4 0  9998",
        "tle_line2": "2 33396  98.5866  50.2435 0001177  95.3480 264.7831 14.20096446892299"
      },
      "geometry": {
        "type": "Point",
        "coordinates": [
          68.4106022172473,
          -63.745153391634624
        ]
      }
    }
  ]
}